CZ-2C R/B               
1 54039U 22132E   25360.95461563  .00035599  00000+0  51276-3 0  9990
2 54039  97.2953 357.4337 0020699   8.3034 351.8559 15.55696505179048
GSLV R/B                
1 54149U 22138AN  25361.03488302  .00002857  00000+0  24962-3 0  9991
2 54149  87.3824 190.6862 0023828  58.9791 301.3776 14.96203859173062
XRISM                   
1 57800U 23137A   25361.17466991  .00006992  00000+0  40833-3 0  9992
2 57800  31.0031  32.3375 0007629  30.5974 329.5108 15.10490560126812
ACS3                    
1 59588U 24077B   25361.12177896  .00030526  00000+0  25830-1 0  9997
2 59588  97.2582 313.5144 0073675 302.6427  56.7640 13.86171622 84134
SZ-21 MODULE            
1 66515U 25246C   25361.17281042  .00032194  00000+0  34324-3 0  9991
2 66515  41.4764 287.9534 0004159 338.5057  21.5607 15.63263847  6708
