CCSDS_OMM_VERS = 2.0
CREATION_DATE  = 
ORIGINATOR     = 

OBJECT_NAME    = CZ-2C R/B
OBJECT_ID      = 2022-132E
CENTER_NAME    = EARTH
REF_FRAME      = TEME
TIME_SYSTEM    = UTC
MEAN_ELEMENT_THEORY = SGP/SGP4

EPOCH          = 2025-12-26T22:54:38.790432
MEAN_MOTION    = 15.55696505
ECCENTRICITY   = .0020699
INCLINATION    = 97.2953
RA_OF_ASC_NODE = 357.4337
ARG_OF_PERICENTER = 8.3034
MEAN_ANOMALY   = 351.8559

EPHEMERIS_TYPE = 0
CLASSIFICATION_TYPE = U
NORAD_CAT_ID   = 54039
ELEMENT_SET_NO = 999
REV_AT_EPOCH   = 17904
BSTAR          = .51276E-3
MEAN_MOTION_DOT = .35599E-3
MEAN_MOTION_DDOT = 0

CCSDS_OMM_VERS = 2.0
CREATION_DATE  = 
ORIGINATOR     = 

OBJECT_NAME    = GSLV R/B
OBJECT_ID      = 2022-138AN
CENTER_NAME    = EARTH
REF_FRAME      = TEME
TIME_SYSTEM    = UTC
MEAN_ELEMENT_THEORY = SGP/SGP4

EPOCH          = 2025-12-27T00:50:13.892928
MEAN_MOTION    = 14.96203859
ECCENTRICITY   = .0023828
INCLINATION    = 87.3824
RA_OF_ASC_NODE = 190.6862
ARG_OF_PERICENTER = 58.9791
MEAN_ANOMALY   = 301.3776

EPHEMERIS_TYPE = 0
CLASSIFICATION_TYPE = U
NORAD_CAT_ID   = 54149
ELEMENT_SET_NO = 999
REV_AT_EPOCH   = 17306
BSTAR          = .24962E-3
MEAN_MOTION_DOT = .2857E-4
MEAN_MOTION_DDOT = 0

CCSDS_OMM_VERS = 2.0
CREATION_DATE  = 
ORIGINATOR     = 

OBJECT_NAME    = XRISM
OBJECT_ID      = 2023-137A
CENTER_NAME    = EARTH
REF_FRAME      = TEME
TIME_SYSTEM    = UTC
MEAN_ELEMENT_THEORY = SGP/SGP4

EPOCH          = 2025-12-27T04:11:31.480224
MEAN_MOTION    = 15.10490560
ECCENTRICITY   = .0007629
INCLINATION    = 31.0031
RA_OF_ASC_NODE = 32.3375
ARG_OF_PERICENTER = 30.5974
MEAN_ANOMALY   = 329.5108

EPHEMERIS_TYPE = 0
CLASSIFICATION_TYPE = U
NORAD_CAT_ID   = 57800
ELEMENT_SET_NO = 999
REV_AT_EPOCH   = 12681
BSTAR          = .40833E-3
MEAN_MOTION_DOT = .6992E-4
MEAN_MOTION_DDOT = 0

CCSDS_OMM_VERS = 2.0
CREATION_DATE  = 
ORIGINATOR     = 

OBJECT_NAME    = ACS3
OBJECT_ID      = 2024-077B
CENTER_NAME    = EARTH
REF_FRAME      = TEME
TIME_SYSTEM    = UTC
MEAN_ELEMENT_THEORY = SGP/SGP4

EPOCH          = 2025-12-27T02:55:21.702144
MEAN_MOTION    = 13.86171622
ECCENTRICITY   = .0073675
INCLINATION    = 97.2582
RA_OF_ASC_NODE = 313.5144
ARG_OF_PERICENTER = 302.6427
MEAN_ANOMALY   = 56.7640

EPHEMERIS_TYPE = 0
CLASSIFICATION_TYPE = U
NORAD_CAT_ID   = 59588
ELEMENT_SET_NO = 999
REV_AT_EPOCH   = 8413
BSTAR          = .2583E-1
MEAN_MOTION_DOT = .30526E-3
MEAN_MOTION_DDOT = 0

CCSDS_OMM_VERS = 2.0
CREATION_DATE  = 
ORIGINATOR     = 

OBJECT_NAME    = SZ-21 MODULE
OBJECT_ID      = 2025-246C
CENTER_NAME    = EARTH
REF_FRAME      = TEME
TIME_SYSTEM    = UTC
MEAN_ELEMENT_THEORY = SGP/SGP4

EPOCH          = 2025-12-27T04:08:50.820288
MEAN_MOTION    = 15.63263847
ECCENTRICITY   = .0004159
INCLINATION    = 41.4764
RA_OF_ASC_NODE = 287.9534
ARG_OF_PERICENTER = 338.5057
MEAN_ANOMALY   = 21.5607

EPHEMERIS_TYPE = 0
CLASSIFICATION_TYPE = U
NORAD_CAT_ID   = 66515
ELEMENT_SET_NO = 999
REV_AT_EPOCH   = 670
BSTAR          = .34324E-3
MEAN_MOTION_DOT = .32194E-3
MEAN_MOTION_DDOT = 0

